{
  "norad_id": 39189,
  "name": "O3B FM4",
  "history": [
    {
      "epoch": "2026-03-27T09:41:53.263680Z",
      "apogee_km": 8073.219061903145,
      "perigee_km": 8058.575699847813,
      "latitude_deg": 0.013464085953050212,
      "longitude_deg": 29.68875496654993,
      "height_km": 8057.2387602328145,
      "semi_major_axis_km": 14444.034380875479,
      "eccentricity": 0.0005069,
      "inclination_deg": 0.0535,
      "raan_deg": 345.5776,
      "arg_perigee_deg": 27.4764,
      "mean_anomaly_deg": 346.9547,
      "mean_motion_rev_day": 5.00115128
    }
  ]
}